{
  "type": "FeatureCollection",
  "features": [
    {
      "type": "Feature",
      "properties": {
        "norad_id": 45807,
        "name": "BEIDOU-3 G3 (C61)",
        "group": "gnss",
        "lat": 1.791120571927635,
        "lon": 128.05888353105237,
        "alt_km": 35797.08264813093,
        "timestamp": "2025-12-23T18:59:32.214709+00:00",
        "meta_object_name": "BEIDOU-3 G3 (C61)",
        "meta_object_id": "2020-040A",
        "meta_epoch": "2025-12-23T06:48:37.677024",
        "meta_mean_motion": 1.00268803,
        "meta_eccentricity": 0.00065635,
        "meta_inclination": 2.0151,
        "meta_ra_of_asc_node": 66.6726,
        "meta_arg_of_pericenter": 309.252,
        "meta_mean_anomaly": 288.8631,
        "meta_ephemeris_type": 0,
        "meta_classification_type": "U",
        "meta_norad_cat_id": 45807,
        "meta_element_set_no": 999,
        "meta_rev_at_epoch": 2030,
        "meta_bstar": 0,
        "meta_mean_motion_dot": -3.33e-06,
        "meta_mean_motion_ddot": 0,
        "tle_line1": "1 45807U 20040A   25357.28376941 -.00000333  00000+0  00000+0 0  9990",
        "tle_line2": "2 45807   2.0151  66.6726 0006563 309.2520 288.8631  1.00268803 20308"
      },
      "geometry": {
        "type": "Point",
        "coordinates": [
          128.05888353105237,
          1.791120571927635
        ]
      }
    },
    {
      "type": "Feature",
      "properties": {
        "norad_id": 45854,
        "name": "GPS BIII-3  (PRN 23)",
        "group": "gnss",
        "lat": 35.31924761096572,
        "lon": 63.68455867335177,
        "alt_km": 20329.37243125525,
        "timestamp": "2025-12-23T18:59:32.214720+00:00",
        "meta_object_name": "GPS BIII-3  (PRN 23)",
        "meta_object_id": "2020-041A",
        "meta_epoch": "2025-12-23T05:38:15.042912",
        "meta_mean_motion": 2.00561767,
        "meta_eccentricity": 0.00606523,
        "meta_inclination": 56.5539,
        "meta_ra_of_asc_node": 35.7774,
        "meta_arg_of_pericenter": 203.7074,
        "meta_mean_anomaly": 158.6734,
        "meta_ephemeris_type": 0,
        "meta_classification_type": "U",
        "meta_norad_cat_id": 45854,
        "meta_element_set_no": 999,
        "meta_rev_at_epoch": 4051,
        "meta_bstar": 0,
        "meta_mean_motion_dot": -5e-07,
        "meta_mean_motion_ddot": 0,
        "tle_line1": "1 45854U 20041A   25357.23489633 -.00000050  00000+0  00000+0 0  9997",
        "tle_line2": "2 45854  56.5539  35.7774 0060652 203.7074 158.6734  2.00561767 40514"
      },
      "geometry": {
        "type": "Point",
        "coordinates": [
          63.68455867335177,
          35.31924761096572
        ]
      }
    },
    {
      "type": "Feature",
      "properties": {
        "norad_id": 46114,
        "name": "GALAXY 30 (WAAS/PRN 135)",
        "group": "gnss",
        "lat": -0.03741750097267319,
        "lon": -107.55273269741659,
        "alt_km": 35778.23277422071,
        "timestamp": "2025-12-23T18:59:32.214730+00:00",
        "meta_object_name": "GALAXY 30 (WAAS/PRN 135)",
        "meta_object_id": "2020-056C",
        "meta_epoch": "2025-12-23T03:38:39.356160",
        "meta_mean_motion": 1.00270214,
        "meta_eccentricity": 0.00020157,
        "meta_inclination": 0.0188,
        "meta_ra_of_asc_node": 12.6466,
        "meta_arg_of_pericenter": 254.5213,
        "meta_mean_anomaly": 114.4446,
        "meta_ephemeris_type": 0,
        "meta_classification_type": "U",
        "meta_norad_cat_id": 46114,
        "meta_element_set_no": 999,
        "meta_rev_at_epoch": 1952,
        "meta_bstar": 0,
        "meta_mean_motion_dot": 5.8e-07,
        "meta_mean_motion_ddot": 0,
        "tle_line1": "1 46114U 20056C   25357.15184440  .00000058  00000+0  00000+0 0  9999",
        "tle_line2": "2 46114   0.0188  12.6466 0002015 254.5213 114.4446  1.00270214 19528"
      },
      "geometry": {
        "type": "Point",
        "coordinates": [
          -107.55273269741659,
          -0.03741750097267319
        ]
      }
    },
    {
      "type": "Feature",
      "properties": {
        "norad_id": 46805,
        "name": "COSMOS 2547 (705K)",
        "group": "gnss",
        "lat": -64.56435555683984,
        "lon": 107.0092431842417,
        "alt_km": 19125.025641556556,
        "timestamp": "2025-12-23T18:59:32.214740+00:00",
        "meta_object_name": "COSMOS 2547 (705K)",
        "meta_object_id": "2020-075A",
        "meta_epoch": "2025-12-22T23:18:06.854688",
        "meta_mean_motion": 2.13100221,
        "meta_eccentricity": 0.00061066,
        "meta_inclination": 64.5968,
        "meta_ra_of_asc_node": 198.3547,
        "meta_arg_of_pericenter": 227.5279,
        "meta_mean_anomaly": 132.4843,
        "meta_ephemeris_type": 0,
        "meta_classification_type": "U",
        "meta_norad_cat_id": 46805,
        "meta_element_set_no": 999,
        "meta_rev_at_epoch": 4015,
        "meta_bstar": 0,
        "meta_mean_motion_dot": 9.5e-07,
        "meta_mean_motion_ddot": 0,
        "tle_line1": "1 46805U 20075A   25356.97091267  .00000095  00000+0  00000+0 0  9991",
        "tle_line2": "2 46805  64.5968 198.3547 0006106 227.5279 132.4843  2.13100221 40154"
      },
      "geometry": {
        "type": "Point",
        "coordinates": [
          107.0092431842417,
          -64.56435555683984
        ]
      }
    },
    {
      "type": "Feature",
      "properties": {
        "norad_id": 46826,
        "name": "GPS BIII-4  (PRN 14)",
        "group": "gnss",
        "lat": 12.45867959439169,
        "lon": -132.85583843987368,
        "alt_km": 20351.102188661393,
        "timestamp": "2025-12-23T18:59:32.214750+00:00",
        "meta_object_name": "GPS BIII-4  (PRN 14)",
        "meta_object_id": "2020-078A",
        "meta_epoch": "2025-12-16T01:06:13.902336",
        "meta_mean_motion": 2.00566891,
        "meta_eccentricity": 0.0064755,
        "meta_inclination": 54.0145,
        "meta_ra_of_asc_node": 218.2068,
        "meta_arg_of_pericenter": 203.3828,
        "meta_mean_anomaly": 339.3936,
        "meta_ephemeris_type": 0,
        "meta_classification_type": "U",
        "meta_norad_cat_id": 46826,
        "meta_element_set_no": 999,
        "meta_rev_at_epoch": 3783,
        "meta_bstar": 0,
        "meta_mean_motion_dot": 6.7e-07,
        "meta_mean_motion_ddot": 0,
        "tle_line1": "1 46826U 20078A   25350.04599424  .00000067  00000+0  00000+0 0  9996",
        "tle_line2": "2 46826  54.0145 218.2068 0064755 203.3828 339.3936  2.00566891 37831"
      },
      "geometry": {
        "type": "Point",
        "coordinates": [
          -132.85583843987368,
          12.45867959439169
        ]
      }
    },
    {
      "type": "Feature",
      "properties": {
        "norad_id": 48859,
        "name": "GPS BIII-5  (PRN 11)",
        "group": "gnss",
        "lat": -16.374247277399018,
        "lon": 171.26146934607007,
        "alt_km": 20130.955879833047,
        "timestamp": "2025-12-23T18:59:32.214760+00:00",
        "meta_object_name": "GPS BIII-5  (PRN 11)",
        "meta_object_id": "2021-054A",
        "meta_epoch": "2025-12-08T04:14:32.423424",
        "meta_mean_motion": 2.00553627,
        "meta_eccentricity": 0.0024678,
        "meta_inclination": 55.2581,
        "meta_ra_of_asc_node": 340.1367,
        "meta_arg_of_pericenter": 233.3993,
        "meta_mean_anomaly": 212.8594,
        "meta_ephemeris_type": 0,
        "meta_classification_type": "U",
        "meta_norad_cat_id": 48859,
        "meta_element_set_no": 999,
        "meta_rev_at_epoch": 3292,
        "meta_bstar": 0,
        "meta_mean_motion_dot": -8.6e-07,
        "meta_mean_motion_ddot": 0,
        "tle_line1": "1 48859U 21054A   25342.17676416 -.00000086  00000+0  00000+0 0  9993",
        "tle_line2": "2 48859  55.2581 340.1367 0024678 233.3993 212.8594  2.00553627 32922"
      },
      "geometry": {
        "type": "Point",
        "coordinates": [
          171.26146934607007,
          -16.374247277399018
        ]
      }
    },
    {
      "type": "Feature",
      "properties": {
        "norad_id": 49336,
        "name": "QZS-1R (QZSS/PRN 196)",
        "group": "gnss",
        "lat": 35.111870203962035,
        "lon": 150.4143198420544,
        "alt_km": 38768.16984879817,
        "timestamp": "2025-12-23T18:59:32.214770+00:00",
        "meta_object_name": "QZS-1R (QZSS/PRN 196)",
        "meta_object_id": "2021-096A",
        "meta_epoch": "2025-12-22T13:50:43.015200",
        "meta_mean_motion": 1.00254287,
        "meta_eccentricity": 0.07571253,
        "meta_inclination": 37.0967,
        "meta_ra_of_asc_node": 82.2147,
        "meta_arg_of_pericenter": 271.501,
        "meta_mean_anomaly": 79.4971,
        "meta_ephemeris_type": 0,
        "meta_classification_type": "U",
        "meta_norad_cat_id": 49336,
        "meta_element_set_no": 999,
        "meta_rev_at_epoch": 1523,
        "meta_bstar": 0,
        "meta_mean_motion_dot": -2.47e-06,
        "meta_mean_motion_ddot": 0,
        "tle_line1": "1 49336U 21096A   25356.57688675 -.00000247  00000+0  00000+0 0  9998",
        "tle_line2": "2 49336  37.0967  82.2147 0757125 271.5010  79.4971  1.00254287 15233"
      },
      "geometry": {
        "type": "Point",
        "coordinates": [
          150.4143198420544,
          35.111870203962035
        ]
      }
    }
  ]
}